NORAD_CAT_ID,OBJECT_NAME,OBJECT_TYPE,EPOCH,MEAN_MOTION,ECCENTRICITY,INCLINATION,RA_OF_ASC_NODE,ARG_OF_PERICENTER,MEAN_ANOMALY,BSTAR,MEAN_MOTION_DOT,MEAN_MOTION_DDOT,TLE_LINE0,TLE_LINE1,TLE_LINE2,SEMIMAJOR_AXIS,PERIOD,APOGEE,PERIGEE,DECAYED
55409.0,STARLINK-5047,PAYLOAD,2024-05-03 15:04:38,14.98334402,0.0003001,69.9981,326.6924,270.6503,89.4313,3.6515e-05,3.43e-06,0.0,0 STARLINK-5047,1 55409U 23014U   24124.62822354  .00000343  00000-0  36515-4 0  9992,2 55409  69.9981 326.6924 0003001 270.6503  89.4313 14.98334402 70931,6950.179,96.107,574.13,569.959,0.0
55409.0,STARLINK-5047,PAYLOAD,2024-05-03 19:53:02,14.98335906,0.0002964,69.9984,326.1874,269.5416,90.5403,4.013e-05,3.86e-06,0.0,0 STARLINK-5047,1 55409U 23014U   24124.82850206  .00000386  00000-0  40130-4 0  9996,2 55409  69.9984 326.1874 0002964 269.5416  90.5403 14.98335906 70023,6950.175,96.107,574.1,569.98,0.0
55409.0,STARLINK-5047,PAYLOAD,2024-05-03 21:29:10,14.98334913,0.0002987,69.9984,326.019,269.293,90.7886,2.5124e-05,2.07e-06,0.0,0 STARLINK-5047,1 55409U 23014U   24124.89526285  .00000207  00000-0  25124-4 0  9998,2 55409  69.9984 326.0190 0002987 269.2930  90.7886 14.98334913 70974,6950.178,96.107,574.119,569.967,0.0
55409.0,STARLINK-5047,PAYLOAD,2024-05-04 13:30:31,14.983243,0.0002838,69.9984,324.335,269.7526,90.3308,5.7391e-05,5.92e-06,0.0,0 STARLINK-5047,1 55409U 23014U   24125.56286916  .00000592  00000-0  57391-4 0  9995,2 55409  69.9984 324.3350 0002838 269.7526  90.3308 14.98324300 70136,6950.211,96.107,574.048,570.103,0.0
55409.0,STARLINK-5047,PAYLOAD,2024-05-04 19:55:03,14.98360862,0.0003104,69.9983,323.6618,275.0325,85.048,-0.0006223,-7.516e-05,0.0,0 STARLINK-5047,1 55409U 23014U   24125.82990511 -.00007516  00000-0 -62230-3 0  9999,2 55409  69.9983 323.6618 0003104 275.0325  85.0480 14.98360862 70177,6950.097,96.105,574.12,569.805,0.0
55409.0,STARLINK-5047,PAYLOAD,2024-05-04 23:07:19,14.98374647,0.0003258,69.9983,323.3251,275.4429,84.6358,-0.00084882,-0.00010218,0.0,0 STARLINK-5047,1 55409U 23014U   24125.96341961 -.00010218  00000-0 -84882-3 0  9993,2 55409  69.9983 323.3251 0003258 275.4429  84.6358 14.98374647 70193,6950.055,96.104,574.184,569.655,0.0
55409.0,STARLINK-5047,PAYLOAD,2024-05-05 13:32:32,14.98333085,0.0003032,69.9985,321.81,269.5296,90.5515,3.2849e-05,2.99e-06,0.0,0 STARLINK-5047,1 55409U 23014U   24126.56426517  .00000299  00000-0  32849-4 0  9994,2 55409  69.9985 321.8100 0003032 269.5296  90.5515 14.98333085 70289,6950.183,96.107,574.156,569.941,0.0
55409.0,STARLINK-5047,PAYLOAD,2024-05-05 21:33:12,14.98335931,0.0003127,69.9984,320.969,271.1799,88.9002,4.4328e-05,4.36e-06,0.0,0 STARLINK-5047,1 55409U 23014U   24126.89806237  .00000436  00000-0  44328-4 0  9999,2 55409  69.9984 320.9690 0003127 271.1799  88.9002 14.98335931 71278,6950.175,96.107,574.213,569.866,0.0
55409.0,STARLINK-5047,PAYLOAD,2024-05-06 13:34:33,14.9832652,0.0003057,69.9985,319.2856,272.6026,87.4783,8.4878e-05,9.2e-06,0.0,0 STARLINK-5047,1 55409U 23014U   24127.56566757  .00000920  00000-0  84878-4 0  9996,2 55409  69.9985 319.2856 0003057 272.6026  87.4783 14.98326520 70436,6950.204,96.107,574.193,569.944,0.0
55409.0,STARLINK-5047,PAYLOAD,2024-05-06 15:10:41,14.98326642,0.000306,69.9985,319.1173,272.5663,87.5145,8.4537e-05,9.16e-06,0.0,0 STARLINK-5047,1 55409U 23014U   24127.63242765  .00000916  00000-0  84537-4 0  9991,2 55409  69.9985 319.1173 0003060 272.5663  87.5145 14.98326642 71380,6950.203,96.107,574.195,569.942,0.0
55409.0,STARLINK-5047,PAYLOAD,2024-05-06 21:35:13,14.98330816,0.0002997,69.9986,318.4441,271.9217,88.1599,0.00012107,1.352e-05,0.0,0 STARLINK-5047,1 55409U 23014U   24127.89946404  .00001352  00000-0  12107-3 0  9998,2 55409  69.9986 318.4441 0002997 271.9217  88.1599 14.98330816 71420,6950.19,96.107,574.138,569.972,0.0
55409.0,STARLINK-5047,PAYLOAD,2024-05-07 13:36:34,14.98330449,0.0002902,69.9987,316.7611,270.3631,89.7195,3.9293e-06,-4.6e-07,0.0,0 STARLINK-5047,1 55409U 23014U   24128.56706745 -.00000046  00000-0  39293-5 0  9992,2 55409  69.9987 316.7611 0002902 270.3631  89.7195 14.98330449 71522,6950.192,96.107,574.073,570.04,0.0
55409.0,STARLINK-5047,PAYLOAD,2024-05-07 20:01:06,14.98330406,0.0002921,69.9988,316.088,268.3972,91.6853,1.3989e-06,-7.6e-07,0.0,0 STARLINK-5047,1 55409U 23014U   24128.83410696 -.00000076  00000-0  13989-5 0  9996,2 55409  69.9988 316.0880 0002921 268.3972  91.6853 14.98330406 70626,6950.192,96.107,574.087,570.026,0.0
55409.0,STARLINK-5047,PAYLOAD,2024-05-07 21:37:14,14.98330662,0.0002917,69.9988,315.9196,268.5224,91.5601,4.0066e-06,-4.5e-07,0.0,0 STARLINK-5047,1 55409U 23014U   24128.90086670 -.00000045  00000-0  40066-5 0  9997,2 55409  69.9988 315.9196 0002917 268.5224  91.5601 14.98330662 71570,6950.191,96.107,574.083,570.028,0.0
55409.0,STARLINK-5047,PAYLOAD,2024-05-08 13:38:35,14.98329237,0.0002897,69.9988,314.2363,268.2865,91.7963,9.935e-06,2.6e-07,0.0,0 STARLINK-5047,1 55409U 23014U   24129.56846802  .00000026  00000-0  99350-5 0  9999,2 55409  69.9988 314.2363 0002897 268.2865  91.7963 14.98329237 71673,6950.195,96.107,574.074,570.047,0.0
55409.0,STARLINK-5047,PAYLOAD,2024-05-08 20:03:07,14.98329443,0.0002915,69.9988,313.5628,268.6845,91.398,3.719e-06,-4.9e-07,0.0,0 STARLINK-5047,1 55409U 23014U   24129.83550776 -.00000049  00000-0  37190-5 0  9991,2 55409  69.9988 313.5628 0002915 268.6845  91.3980 14.98329443 70776,6950.195,96.107,574.086,570.034,0.0
55409.0,STARLINK-5047,PAYLOAD,2024-05-08 21:39:15,14.98330152,0.000291,69.9989,313.3945,268.7728,91.3098,1.1607e-05,4.5e-07,0.0,0 STARLINK-5047,1 55409U 23014U   24129.90226712  .00000045  00000-0  11607-4 0  9998,2 55409  69.9989 313.3945 0002910 268.7728  91.3098 14.98330152 71728,6950.192,96.107,574.08,570.035,0.0
55409.0,STARLINK-5047,PAYLOAD,2024-05-09 13:40:36,14.98329375,0.0003064,69.9984,311.7105,270.3341,89.7467,8.0826e-05,8.71e-06,0.0,0 STARLINK-5047,1 55409U 23014U   24130.56986624  .00000871  00000-0  80826-4 0  9993,2 55409  69.9984 311.7105 0003064 270.3341  89.7467 14.98329375 71821,6950.195,96.107,574.189,569.93,0.0
55409.0,STARLINK-5047,PAYLOAD,2024-05-09 20:05:08,14.98335091,0.0003072,69.9985,311.0372,270.7717,89.309,9.3286e-05,1.02e-05,0.0,0 STARLINK-5047,1 55409U 23014U   24130.83690284  .00001020  00000-0  93286-4 0  9998,2 55409  69.9985 311.0372 0003072 270.7717  89.3090 14.98335091 70921,6950.177,96.107,574.177,569.907,0.0
55409.0,STARLINK-5047,PAYLOAD,2024-05-09 21:41:16,14.98336378,0.0003065,69.9985,310.8689,270.8604,89.2204,0.00010712,1.186e-05,0.0,0 STARLINK-5047,1 55409U 23014U   24130.90366159  .00001186  00000-0  10712-3 0  9992,2 55409  69.9985 310.8689 0003065 270.8604  89.2204 14.98336378 71877,6950.173,96.107,574.168,569.908,0.0
55409.0,STARLINK-5047,PAYLOAD,2024-05-10 13:42:37,14.98327214,0.0003004,69.9988,309.1853,270.897,89.1845,4.0446e-05,3.9e-06,0.0,0 STARLINK-5047,1 55409U 23014U   24131.57126992  .00000390  00000-0  40446-4 0  9999,2 55409  69.9988 309.1853 0003004 270.8970  89.1845 14.98327214 71973,6950.202,96.107,574.154,569.979,0.0
55409.0,STARLINK-5047,PAYLOAD,2024-05-10 21:43:17,14.98334164,0.0002998,69.9988,308.3437,271.1624,88.9192,8.3808e-05,9.07e-06,0.0,0 STARLINK-5047,1 55409U 23014U   24131.90506449  .00000907  00000-0  83808-4 0  9998,2 55409  69.9988 308.3437 0002998 271.1624  88.9192 14.98334164 72024,6950.18,96.107,574.129,569.961,0.0
55409.0,STARLINK-5047,PAYLOAD,2024-05-11 12:08:28,14.98356619,0.0003328,69.9971,306.8285,286.6645,73.4148,0.00033902,3.957e-05,0.0,0 STARLINK-5047,1 55409U 23014U   24132.50588116  .00003957  00000-0  33902-3 0  9993,2 55409  69.9971 306.8285 0003328 286.6645  73.4148 14.98356619 71176,6950.111,96.105,574.289,569.663,0.0
55409.0,STARLINK-5047,PAYLOAD,2024-05-11 20:09:10,14.98319677,0.0002705,70.0001,305.9871,263.6636,96.4215,-0.00035992,-4.384e-05,0.0,0 STARLINK-5047,1 55409U 23014U   24132.83970217 -.00004384  00000-0 -35992-3 0  9994,2 55409  70.0001 305.9871 0002705 263.6636  96.4215 14.98319677 71226,6950.225,96.108,573.97,570.21,0.0
55409.0,STARLINK-5047,PAYLOAD,2024-05-11 21:45:18,14.98319871,0.0002664,70.0006,305.8184,267.5641,92.5213,-0.00051231,-6.199e-05,0.0,0 STARLINK-5047,1 55409U 23014U   24132.90646021 -.00006199  00000-0 -51231-3 0  9995,2 55409  70.0006 305.8184 0002664 267.5641  92.5213 14.98319871 72176,6950.224,96.108,573.941,570.238,0.0
55409.0,STARLINK-5047,PAYLOAD,2024-05-12 04:09:51,14.98293462,0.0002475,70.0015,305.1449,271.935,88.1526,-0.0017511,-0.00020904,0.0,0 STARLINK-5047,1 55409U 23014U   24133.17350760 -.00020904  00000-0 -17511-2 0  9999,2 55409  70.0015 305.1449 0002475 271.9350  88.1526 14.98293462 71274,6950.306,96.109,573.891,570.451,0.0
55409.0,STARLINK-5047,PAYLOAD,2024-05-12 12:10:32,14.98261491,0.0001123,70.0024,304.3059,255.4291,104.6743,-0.0021963,-0.00026152,0.0,0 STARLINK-5047,1 55409U 23014U   24133.50732632 -.00026152  00000-0 -21963-2 0  9995,2 55409  70.0024 304.3059 0001123 255.4291 104.6743 14.98261491 71320,6950.405,96.111,573.05,571.489,0.0
55409.0,STARLINK-5047,PAYLOAD,2024-05-12 13:46:41,14.98254184,0.0001662,70.0028,304.1399,234.8686,125.2317,-0.0022069,-0.00026273,0.0,0 STARLINK-5047,1 55409U 23014U   24133.57408971 -.00026273  00000-0 -22069-2 0  9990,2 55409  70.0028 304.1399 0001662 234.8686 125.2317 14.98254184 72278,6950.427,96.112,573.448,571.137,0.0
55409.0,STARLINK-5047,PAYLOAD,2024-05-12 20:11:14,14.98274399,0.0002387,70.0014,303.4611,268.4328,91.6557,0.0028376,0.00033879,0.0,0 STARLINK-5047,1 55409U 23014U   24133.84113987  .00033879  00000-0  28376-2 0  9995,2 55409  70.0014 303.4611 0002387 268.4328  91.6557 14.98274399 71375,6950.365,96.111,573.889,570.571,0.0
55409.0,STARLINK-5047,PAYLOAD,2024-05-12 21:47:22,14.98283715,0.0002493,70.0015,303.293,265.0782,95.0092,0.0029137,0.00034803,0.0,0 STARLINK-5047,1 55409U 23014U   24133.90790072  .00034803  00000-0  29137-2 0  9992,2 55409  70.0015 303.2930 0002493 265.0782  95.0092 14.98283715 72323,6950.336,96.11,573.934,570.468,0.0
